{
  "type": "FeatureCollection",
  "features": [
    {
      "type": "Feature",
      "geometry": {
        "type": "Polygon",
        "coordinates": [
          [
            [
              -2.90393988136494,
              53.4078361898031
            ],
            [
              -2.90158441831013,
              53.4072859345303
            ],
            [
              -2.90008705231713,
              53.4065040880457
            ],
            [
              -2.89947382207036,
              53.4036449426477
            ],
            [
              -2.89945146482885,
              53.4034706275606
            ],
            [
              -2.90642353060223,
              53.4026077886093
            ],
            [
              -2.9081517763252,
              53.4039412188004
            ],
            [
              -2.90444624528164,
              53.4061396562858
            ],
            [
              -2.90947181475995,
              53.4078628912296
            ],
            [
              -2.90393988136494,
              53.4078361898031
            ]
          ]
        ]
      },
      "properties": {
        "type": "control_candidate_with_countlines",
        "lsoa21cd": "E01006575",
        "lsoa21nm": "Liverpool 034A",
        "lad": "Liverpool",
        "imd_decile": "2.0",
        "matched_to": "12d / Liverpool 052A",
        "best_rank": 13,
        "best_score": 0.3923729386242444,
        "min_distance_km": 3.877440836017368,
        "same_lad": "yes",
        "available_countlines": 4
      }
    },
    {
      "type": "Feature",
      "geometry": {
        "type": "Polygon",
        "coordinates": [
          [
            [
              -2.88379424711979,
              53.407852517338
            ],
            [
              -2.88176617464853,
              53.4080077206344
            ],
            [
              -2.88123240980388,
              53.4069925600866
            ],
            [
              -2.89004053389452,
              53.4057679747581
            ],
            [
              -2.89266132669161,
              53.4081957178267
            ],
            [
              -2.90008705231713,
              53.4065040880457
            ],
            [
              -2.90158441831013,
              53.4072859345303
            ],
            [
              -2.89236345109216,
              53.4109704160203
            ],
            [
              -2.89053507264945,
              53.4069123975698
            ],
            [
              -2.88379424711979,
              53.407852517338
            ]
          ]
        ]
      },
      "properties": {
        "type": "control_candidate_with_countlines",
        "lsoa21cd": "E01006584",
        "lsoa21nm": "Liverpool 034E",
        "lad": "Liverpool",
        "imd_decile": "3.0",
        "matched_to": "12d / Liverpool 052A",
        "best_rank": 38,
        "best_score": 0.5227304307815582,
        "min_distance_km": 4.503883692754431,
        "same_lad": "yes",
        "available_countlines": 2
      }
    },
    {
      "type": "Feature",
      "geometry": {
        "type": "Polygon",
        "coordinates": [
          [
            [
              -2.92049080268737,
              53.3999022169162
            ],
            [
              -2.91615484380953,
              53.3972087354145
            ],
            [
              -2.9106731490169,
              53.3939501775784
            ],
            [
              -2.91164095726551,
              53.391307005717
            ],
            [
              -2.92300691637864,
              53.3944255170558
            ],
            [
              -2.92293683562231,
              53.3955082971797
            ],
            [
              -2.92221204911201,
              53.399193587419
            ],
            [
              -2.92158922375985,
              53.4006143058051
            ],
            [
              -2.92049080268737,
              53.3999022169162
            ]
          ]
        ]
      },
      "properties": {
        "type": "control_candidate_with_countlines",
        "lsoa21cd": "E01006588",
        "lsoa21nm": "Liverpool 042C",
        "lad": "Liverpool",
        "imd_decile": "2.0",
        "matched_to": "12d / Liverpool 052A",
        "best_rank": 10,
        "best_score": 0.36573553585178464,
        "min_distance_km": 2.498368032673055,
        "same_lad": "yes",
        "available_countlines": 5
      }
    },
    {
      "type": "Feature",
      "geometry": {
        "type": "Polygon",
        "coordinates": [
          [
            [
              -2.87187101775234,
              53.3867041316946
            ],
            [
              -2.86864969467436,
              53.3852211728074
            ],
            [
              -2.87132084772616,
              53.3782946875554
            ],
            [
              -2.87761932816066,
              53.3790035727586
            ],
            [
              -2.8845152218456,
              53.3837946501992
            ],
            [
              -2.87425973604032,
              53.3875481449009
            ],
            [
              -2.87187101775234,
              53.3867041316946
            ]
          ]
        ]
      },
      "properties": {
        "type": "control_candidate_with_countlines",
        "lsoa21cd": "E01006792",
        "lsoa21nm": "Liverpool 046A",
        "lad": "Liverpool",
        "imd_decile": "7.0",
        "matched_to": "12b / Knowsley 017B",
        "best_rank": 10,
        "best_score": 0.3973006376370549,
        "min_distance_km": 4.505583460532473,
        "same_lad": "no",
        "available_countlines": 3
      }
    },
    {
      "type": "Feature",
      "geometry": {
        "type": "Polygon",
        "coordinates": [
          [
            [
              -2.67716711266669,
              53.4527530468609
            ],
            [
              -2.68035528631431,
              53.4446791598764
            ],
            [
              -2.69019516934673,
              53.4455839884819
            ],
            [
              -2.68646566167191,
              53.4498207513358
            ],
            [
              -2.68674603627042,
              53.4524111860734
            ],
            [
              -2.68168247733295,
              53.4548158088212
            ],
            [
              -2.67716711266669,
              53.4527530468609
            ]
          ]
        ]
      },
      "properties": {
        "type": "control_candidate_with_countlines",
        "lsoa21cd": "E01006816",
        "lsoa21nm": "St. Helens 017A",
        "lad": "St. Helens",
        "imd_decile": "1.0",
        "matched_to": "12e / St. Helens 008C",
        "best_rank": 32,
        "best_score": 0.36287350152564557,
        "min_distance_km": 2.1006048924806637,
        "same_lad": "yes",
        "available_countlines": 4
      }
    },
    {
      "type": "Feature",
      "geometry": {
        "type": "Polygon",
        "coordinates": [
          [
            [
              -2.72001082057918,
              53.4524267532163
            ],
            [
              -2.72153555367533,
              53.4493435097311
            ],
            [
              -2.73103768970422,
              53.4514259783742
            ],
            [
              -2.73837713203536,
              53.4537538260777
            ],
            [
              -2.7357825607911,
              53.4553868857508
            ],
            [
              -2.73118790678207,
              53.4537612365025
            ],
            [
              -2.72454597995269,
              53.4590090939827
            ],
            [
              -2.72001082057918,
              53.4524267532163
            ]
          ]
        ]
      },
      "properties": {
        "type": "control_candidate_with_countlines",
        "lsoa21cd": "E01006872",
        "lsoa21nm": "St. Helens 014C",
        "lad": "St. Helens",
        "imd_decile": "1.0",
        "matched_to": "12e / St. Helens 014D",
        "best_rank": 4,
        "best_score": 0.45600721797412136,
        "min_distance_km": 0.8293637345733512,
        "same_lad": "yes",
        "available_countlines": 6
      }
    },
    {
      "type": "Feature",
      "geometry": {
        "type": "Polygon",
        "coordinates": [
          [
            [
              -2.73535259966953,
              53.4561703021006
            ],
            [
              -2.7357825607911,
              53.4553868857508
            ],
            [
              -2.73837713203536,
              53.4537538260777
            ],
            [
              -2.74412460515261,
              53.4521897227303
            ],
            [
              -2.75063563844378,
              53.4541170229782
            ],
            [
              -2.74658557798617,
              53.4572062040333
            ],
            [
              -2.74360356303513,
              53.4608158452704
            ],
            [
              -2.73535259966953,
              53.4561703021006
            ]
          ]
        ]
      },
      "properties": {
        "type": "control_candidate_with_countlines",
        "lsoa21cd": "E01006877",
        "lsoa21nm": "St. Helens 012C",
        "lad": "St. Helens",
        "imd_decile": "1.0",
        "matched_to": "12e / St. Helens 014D",
        "best_rank": 1,
        "best_score": 0.18898104057152734,
        "min_distance_km": 1.741529584283987,
        "same_lad": "yes",
        "available_countlines": 4
      }
    },
    {
      "type": "Feature",
      "geometry": {
        "type": "Polygon",
        "coordinates": [
          [
            [
              -2.73446242898402,
              53.4599197050109
            ],
            [
              -2.73535259966953,
              53.4561703021006
            ],
            [
              -2.74360356303513,
              53.4608158452704
            ],
            [
              -2.74116535844477,
              53.4623452969259
            ],
            [
              -2.73446242898402,
              53.4599197050109
            ]
          ]
        ]
      },
      "properties": {
        "type": "control_candidate_with_countlines",
        "lsoa21cd": "E01006881",
        "lsoa21nm": "St. Helens 012E",
        "lad": "St. Helens",
        "imd_decile": "1.0",
        "matched_to": "12e / St. Helens 014D",
        "best_rank": 45,
        "best_score": 0.7561227932505014,
        "min_distance_km": 1.3934853657593078,
        "same_lad": "yes",
        "available_countlines": 3
      }
    },
    {
      "type": "Feature",
      "geometry": {
        "type": "Polygon",
        "coordinates": [
          [
            [
              -2.69019516934673,
              53.4455839884819
            ],
            [
              -2.68035528631431,
              53.4446791598764
            ],
            [
              -2.68216842998342,
              53.4392343344662
            ],
            [
              -2.68946351319041,
              53.4374115855076
            ],
            [
              -2.70027243102046,
              53.4346642715893
            ],
            [
              -2.70084470113889,
              53.4421087161569
            ],
            [
              -2.69433224429508,
              53.4464532718892
            ],
            [
              -2.69019516934673,
              53.4455839884819
            ]
          ]
        ]
      },
      "properties": {
        "type": "control_candidate_with_countlines",
        "lsoa21cd": "E01006899",
        "lsoa21nm": "St. Helens 017D",
        "lad": "St. Helens",
        "imd_decile": "2.0",
        "matched_to": "12e / St. Helens 008C",
        "best_rank": 27,
        "best_score": 0.3264205954260909,
        "min_distance_km": 2.5080279490312236,
        "same_lad": "yes",
        "available_countlines": 1
      }
    },
    {
      "type": "Feature",
      "geometry": {
        "type": "Polygon",
        "coordinates": [
          [
            [
              -2.72443487640705,
              53.4269110482075
            ],
            [
              -2.71999978521419,
              53.421744340871
            ],
            [
              -2.7248973590802,
              53.418302926682
            ],
            [
              -2.72173903437914,
              53.4163584993764
            ],
            [
              -2.7250176296874,
              53.4161784301903
            ],
            [
              -2.73017143403525,
              53.4168216588777
            ],
            [
              -2.72666965519141,
              53.4202937754216
            ],
            [
              -2.73085847872697,
              53.4237297172131
            ],
            [
              -2.7246003466636,
              53.4272752643342
            ],
            [
              -2.72443487640705,
              53.4269110482075
            ]
          ]
        ]
      },
      "properties": {
        "type": "control_candidate_with_countlines",
        "lsoa21cd": "E01006911",
        "lsoa21nm": "St. Helens 022F",
        "lad": "St. Helens",
        "imd_decile": "6.0",
        "matched_to": "12b / Knowsley 017B",
        "best_rank": 30,
        "best_score": 0.5192570274156509,
        "min_distance_km": 6.382740822724618,
        "same_lad": "no",
        "available_countlines": 20
      }
    },
    {
      "type": "Feature",
      "geometry": {
        "type": "Polygon",
        "coordinates": [
          [
            [
              -2.74260228470256,
              53.4658156736987
            ],
            [
              -2.74116535844477,
              53.4623452969259
            ],
            [
              -2.74360356303513,
              53.4608158452704
            ],
            [
              -2.74658557798617,
              53.4572062040333
            ],
            [
              -2.74787801556667,
              53.4575984681503
            ],
            [
              -2.75000587898812,
              53.4593883082041
            ],
            [
              -2.74819727852459,
              53.4630543358028
            ],
            [
              -2.75629812319335,
              53.4642744044678
            ],
            [
              -2.7530352383554,
              53.4662994713702
            ],
            [
              -2.7447918204937,
              53.4680540222869
            ],
            [
              -2.74260228470256,
              53.4658156736987
            ]
          ]
        ]
      },
      "properties": {
        "type": "control_candidate_with_countlines",
        "lsoa21cd": "E01006915",
        "lsoa21nm": "St. Helens 007B",
        "lad": "St. Helens",
        "imd_decile": "2.0",
        "matched_to": "12e / St. Helens 008C",
        "best_rank": 13,
        "best_score": 0.2578194957548581,
        "min_distance_km": 2.3920249512727914,
        "same_lad": "yes",
        "available_countlines": 8
      }
    },
    {
      "type": "Feature",
      "geometry": {
        "type": "Polygon",
        "coordinates": [
          [
            [
              -3.09607165587238,
              53.3746882399806
            ],
            [
              -3.0957431583027,
              53.3670386336928
            ],
            [
              -3.08266946523851,
              53.3663539043977
            ],
            [
              -3.07760693878241,
              53.3698149506961
            ],
            [
              -3.07217800196969,
              53.3695252598489
            ],
            [
              -3.06354573627358,
              53.3596170656005
            ],
            [
              -3.06724328268998,
              53.3490548063234
            ],
            [
              -3.08637893965349,
              53.3485403298821
            ],
            [
              -3.09084775637798,
              53.3515492303343
            ],
            [
              -3.08734875139625,
              53.3529967086136
            ],
            [
              -3.09142860862561,
              53.3560046322004
            ],
            [
              -3.08960794240213,
              53.3621739058318
            ],
            [
              -3.1046055546306,
              53.3642778996256
            ],
            [
              -3.10730865569825,
              53.373544049447
            ],
            [
              -3.10667221021508,
              53.3738315331203
            ],
            [
              -3.09657494171006,
              53.3761470443059
            ],
            [
              -3.09607165587238,
              53.3746882399806
            ]
          ]
        ]
      },
      "properties": {
        "type": "control_candidate_with_countlines",
        "lsoa21cd": "E01007255",
        "lsoa21nm": "Wirral 034B",
        "lad": "Wirral",
        "imd_decile": "5.0",
        "matched_to": "12f / Wirral 006A",
        "best_rank": 29,
        "best_score": 0.3739743795165358,
        "min_distance_km": 6.700454560685953,
        "same_lad": "yes",
        "available_countlines": 3
      }
    },
    {
      "type": "Feature",
      "geometry": {
        "type": "Polygon",
        "coordinates": [
          [
            [
              -3.06178780935969,
              53.43697878233
            ],
            [
              -3.06653800812344,
              53.4320797565463
            ],
            [
              -3.06152715595618,
              53.4271838052454
            ],
            [
              -3.06455365180248,
              53.4264900251355
            ],
            [
              -3.06775643802276,
              53.4277305579795
            ],
            [
              -3.07911742438833,
              53.4312113831711
            ],
            [
              -3.06035393075803,
              53.4386503821942
            ],
            [
              -3.06008901511905,
              53.4387553792605
            ],
            [
              -3.06178780935969,
              53.43697878233
            ]
          ]
        ]
      },
      "properties": {
        "type": "control_candidate_with_countlines",
        "lsoa21cd": "E01007308",
        "lsoa21nm": "Wirral 003B",
        "lad": "Wirral",
        "imd_decile": "8.0",
        "matched_to": "12f / Wirral 006A",
        "best_rank": 15,
        "best_score": 0.2996934598514105,
        "min_distance_km": 3.2967560065147814,
        "same_lad": "yes",
        "available_countlines": 3
      }
    },
    {
      "type": "Feature",
      "geometry": {
        "type": "Polygon",
        "coordinates": [
          [
            [
              -3.06775643802276,
              53.4277305579795
            ],
            [
              -3.07057705772636,
              53.4236385057462
            ],
            [
              -3.07536625997667,
              53.4249960587943
            ],
            [
              -3.07396506782042,
              53.4178951222398
            ],
            [
              -3.06883974598094,
              53.4202314965406
            ],
            [
              -3.06797273415668,
              53.4155192137312
            ],
            [
              -3.07343874902597,
              53.4140778790978
            ],
            [
              -3.07821378032636,
              53.4211467526919
            ],
            [
              -3.08339926380345,
              53.4202638986511
            ],
            [
              -3.08744523420551,
              53.4279079607306
            ],
            [
              -3.07911742438833,
              53.4312113831711
            ],
            [
              -3.06775643802276,
              53.4277305579795
            ]
          ]
        ]
      },
      "properties": {
        "type": "control_candidate_with_countlines",
        "lsoa21cd": "E01007309",
        "lsoa21nm": "Wirral 006D",
        "lad": "Wirral",
        "imd_decile": "8.0",
        "matched_to": "12f / Wirral 006A",
        "best_rank": 22,
        "best_score": 0.3475138617247764,
        "min_distance_km": 2.38032206516938,
        "same_lad": "yes",
        "available_countlines": 1
      }
    },
    {
      "type": "Feature",
      "geometry": {
        "type": "Polygon",
        "coordinates": [
          [
            [
              -2.72109311869001,
              53.3926623325211
            ],
            [
              -2.71799097897181,
              53.3902369808382
            ],
            [
              -2.72899083808461,
              53.385720821474
            ],
            [
              -2.73421723151366,
              53.389804705902
            ],
            [
              -2.73037140786817,
              53.3961206909718
            ],
            [
              -2.72109311869001,
              53.3926623325211
            ]
          ]
        ]
      },
      "properties": {
        "type": "control_candidate_with_countlines",
        "lsoa21cd": "E01012395",
        "lsoa21nm": "Halton 001C",
        "lad": "Halton",
        "imd_decile": "8.0",
        "matched_to": "12b / Knowsley 017B",
        "best_rank": 44,
        "best_score": 0.586514280430755,
        "min_distance_km": 5.593418510160239,
        "same_lad": "no",
        "available_countlines": 4
      }
    },
    {
      "type": "Feature",
      "geometry": {
        "type": "Polygon",
        "coordinates": [
          [
            [
              -2.72069058529405,
              53.3339213827287
            ],
            [
              -2.715135776142,
              53.3321755994849
            ],
            [
              -2.71434791514009,
              53.3291666518013
            ],
            [
              -2.72219056551012,
              53.3279894264278
            ],
            [
              -2.72617617749599,
              53.3328204424755
            ],
            [
              -2.72185256373438,
              53.3343941980596
            ],
            [
              -2.72069058529405,
              53.3339213827287
            ]
          ]
        ]
      },
      "properties": {
        "type": "control_candidate_with_countlines",
        "lsoa21cd": "E01012397",
        "lsoa21nm": "Halton 013C",
        "lad": "Halton",
        "imd_decile": "1.0",
        "matched_to": "13 / Halton 010B",
        "best_rank": 4,
        "best_score": 0.36538140087553306,
        "min_distance_km": 2.309818924992134,
        "same_lad": "yes",
        "available_countlines": 2
      }
    },
    {
      "type": "Feature",
      "geometry": {
        "type": "Polygon",
        "coordinates": [
          [
            [
              -2.71086691561197,
              53.3365109741508
            ],
            [
              -2.71017880616766,
              53.330708948579
            ],
            [
              -2.715135776142,
              53.3321755994849
            ],
            [
              -2.72069058529405,
              53.3339213827287
            ],
            [
              -2.71554780423476,
              53.3396984694897
            ],
            [
              -2.70806824715056,
              53.3383749975966
            ],
            [
              -2.71086691561197,
              53.3365109741508
            ]
          ]
        ]
      },
      "properties": {
        "type": "control_candidate_with_countlines",
        "lsoa21cd": "E01012402",
        "lsoa21nm": "Halton 011C",
        "lad": "Halton",
        "imd_decile": "2.0",
        "matched_to": "13 / Halton 010B",
        "best_rank": 35,
        "best_score": 0.5645939824166013,
        "min_distance_km": 1.6646349654687693,
        "same_lad": "yes",
        "available_countlines": 1
      }
    },
    {
      "type": "Feature",
      "geometry": {
        "type": "Polygon",
        "coordinates": [
          [
            [
              -2.71375937713134,
              53.3575448639057
            ],
            [
              -2.71382378696736,
              53.3575315997987
            ],
            [
              -2.72848437291258,
              53.3545113998598
            ],
            [
              -2.73307347607677,
              53.3479816523244
            ],
            [
              -2.75694475096197,
              53.349582191209
            ],
            [
              -2.74273486291887,
              53.3559013054922
            ],
            [
              -2.74176071802304,
              53.3607456652578
            ],
            [
              -2.73150800135736,
              53.3625964393163
            ],
            [
              -2.71683837122432,
              53.3659375669203
            ],
            [
              -2.71375937713134,
              53.3575448639057
            ]
          ]
        ]
      },
      "properties": {
        "type": "control_candidate_with_countlines",
        "lsoa21cd": "E01012441",
        "lsoa21nm": "Halton 007D",
        "lad": "Halton",
        "imd_decile": "1.0",
        "matched_to": "13 / Halton 010B",
        "best_rank": 14,
        "best_score": 0.45649920497200236,
        "min_distance_km": 2.290327456479472,
        "same_lad": "yes",
        "available_countlines": 6
      }
    }
  ]
}