{
  "type": "FeatureCollection",
  "features": [
    {
      "type": "Feature",
      "geometry": {
        "type": "Polygon",
        "coordinates": [
          [
            [
              -2.83176841489471,
              53.4009783578435
            ],
            [
              -2.82660663143917,
              53.3998112122643
            ],
            [
              -2.8156133060631,
              53.4031637944743
            ],
            [
              -2.80281162801798,
              53.3953135343252
            ],
            [
              -2.78531940926841,
              53.395992786008
            ],
            [
              -2.78849343923259,
              53.3917600080513
            ],
            [
              -2.80494378951894,
              53.3892492006984
            ],
            [
              -2.81341937498507,
              53.3837128563725
            ],
            [
              -2.83229467665323,
              53.3928803153663
            ],
            [
              -2.83365566822151,
              53.3961761484504
            ],
            [
              -2.83734532387973,
              53.3998687802469
            ],
            [
              -2.83662232116281,
              53.4034290429368
            ],
            [
              -2.83176841489471,
              53.4009783578435
            ]
          ]
        ]
      },
      "properties": {
        "type": "treated",
        "lsoa21cd": "E01006424",
        "lsoa21nm": "Knowsley 017B",
        "lad": "Knowsley",
        "schemes": "12b",
        "road_groups": "Cronton Road / Sandy Lane",
        "countlines": "4",
        "imd_decile": "6.0"
      }
    },
    {
      "type": "Feature",
      "geometry": {
        "type": "Polygon",
        "coordinates": [
          [
            [
              -2.93222566908918,
              53.3745410341583
            ],
            [
              -2.93394566149939,
              53.372874617991
            ],
            [
              -2.93895158192163,
              53.3705560276578
            ],
            [
              -2.94007227395702,
              53.3754326823731
            ],
            [
              -2.94073213719006,
              53.375782553653
            ],
            [
              -2.94210268762726,
              53.3806575220936
            ],
            [
              -2.93931297280234,
              53.3830471682167
            ],
            [
              -2.93031346859833,
              53.3771219306526
            ],
            [
              -2.93222566908918,
              53.3745410341583
            ]
          ]
        ]
      },
      "properties": {
        "type": "treated",
        "lsoa21cd": "E01006521",
        "lsoa21nm": "Liverpool 052A",
        "lad": "Liverpool",
        "schemes": "12d",
        "road_groups": "Aigburth Road",
        "countlines": "5",
        "imd_decile": "3.0"
      }
    },
    {
      "type": "Feature",
      "geometry": {
        "type": "Polygon",
        "coordinates": [
          [
            [
              -2.70220756683373,
              53.458698118558
            ],
            [
              -2.70525931217083,
              53.4576740252896
            ],
            [
              -2.70945200752541,
              53.4573501058537
            ],
            [
              -2.71389983245999,
              53.4598716968896
            ],
            [
              -2.71506705657888,
              53.4610766734475
            ],
            [
              -2.70779475417551,
              53.4643064820572
            ],
            [
              -2.70220756683373,
              53.458698118558
            ]
          ]
        ]
      },
      "properties": {
        "type": "treated",
        "lsoa21cd": "E01006812",
        "lsoa21nm": "St. Helens 008C",
        "lad": "St. Helens",
        "schemes": "12e",
        "road_groups": "Park Road / Path off Park Road",
        "countlines": "2",
        "imd_decile": "1.0"
      }
    },
    {
      "type": "Feature",
      "geometry": {
        "type": "Polygon",
        "coordinates": [
          [
            [
              -2.71389983245999,
              53.4598716968896
            ],
            [
              -2.70945200752541,
              53.4573501058537
            ],
            [
              -2.71080124503589,
              53.4563348751233
            ],
            [
              -2.72001082057918,
              53.4524267532163
            ],
            [
              -2.72454597995269,
              53.4590090939827
            ],
            [
              -2.72450268952667,
              53.4611969843441
            ],
            [
              -2.72113833246491,
              53.461692719964
            ],
            [
              -2.71389983245999,
              53.4598716968896
            ]
          ]
        ]
      },
      "properties": {
        "type": "treated",
        "lsoa21cd": "E01006873",
        "lsoa21nm": "St. Helens 014D",
        "lad": "St. Helens",
        "schemes": "12e",
        "road_groups": "Park Road / Path off Park Road",
        "countlines": "3",
        "imd_decile": "1.0"
      }
    },
    {
      "type": "Feature",
      "geometry": {
        "type": "Polygon",
        "coordinates": [
          [
            [
              -3.10244641425747,
              53.4172401693841
            ],
            [
              -3.10025613037424,
              53.4104886456828
            ],
            [
              -3.10115176836921,
              53.4101660215884
            ],
            [
              -3.10973306732349,
              53.41209400315
            ],
            [
              -3.11552163498046,
              53.4087915849257
            ],
            [
              -3.11677911035528,
              53.4110742348171
            ],
            [
              -3.11967029016409,
              53.4162505562754
            ],
            [
              -3.11887667147798,
              53.4164140953626
            ],
            [
              -3.11831396797343,
              53.4166185081997
            ],
            [
              -3.09777643553322,
              53.4240758881822
            ],
            [
              -3.10244641425747,
              53.4172401693841
            ]
          ]
        ]
      },
      "properties": {
        "type": "treated",
        "lsoa21cd": "E01007203",
        "lsoa21nm": "Wirral 006A",
        "lad": "Wirral",
        "schemes": "12f",
        "road_groups": "Leasowe Road / Wallasey corridor",
        "countlines": "3",
        "imd_decile": "7.0"
      }
    },
    {
      "type": "Feature",
      "geometry": {
        "type": "Polygon",
        "coordinates": [
          [
            [
              -2.67797885124013,
              53.3547108537069
            ],
            [
              -2.67464076192837,
              53.3536644611715
            ],
            [
              -2.68956103977281,
              53.3499254290215
            ],
            [
              -2.68667736344014,
              53.3436250570575
            ],
            [
              -2.68666580215872,
              53.3435626683256
            ],
            [
              -2.68886789851724,
              53.3388771243419
            ],
            [
              -2.69557087998307,
              53.3384907783303
            ],
            [
              -2.69313814858976,
              53.3368258770158
            ],
            [
              -2.69364373125029,
              53.3368722308611
            ],
            [
              -2.70336154822184,
              53.3385613166146
            ],
            [
              -2.70594227537768,
              53.3414543322087
            ],
            [
              -2.71536786054559,
              53.3412578797065
            ],
            [
              -2.72003661859602,
              53.3409421267767
            ],
            [
              -2.72094293514593,
              53.3450654900534
            ],
            [
              -2.6995157370485,
              53.3566828463273
            ],
            [
              -2.67797885124013,
              53.3547108537069
            ]
          ]
        ]
      },
      "properties": {
        "type": "treated",
        "lsoa21cd": "E01012382",
        "lsoa21nm": "Halton 010B",
        "lad": "Halton",
        "schemes": "13",
        "road_groups": "Astmoor Busway / Warrington Road",
        "countlines": "4",
        "imd_decile": "1.0"
      }
    }
  ]
}